{"type": "FeatureCollection", "features": [ {"type": "Feature", "properties": {"norad_id": 40701, "name": "GAOFEN-8", "group": "resource", "lat": -14.21204623343138, "lon": -12.307013709557694, "alt_km": 452.1559946323496, "timestamp": "2025-12-17T07:00:46.548819+00:00", "meta": {"OBJECT_NAME": "GAOFEN-8", "OBJECT_ID": "2015-030A", "EPOCH": "2025-12-16T23:55:45.911424", "MEAN_MOTION": 15.38694024, "ECCENTRICITY": 0.00118067, "INCLINATION": 97.6897, "RA_OF_ASC_NODE": 169.3446, "ARG_OF_PERICENTER": 123.5263, "MEAN_ANOMALY": 236.7111, "EPHEMERIS_TYPE": 0, "CLASSIFICATION_TYPE": "U", "NORAD_CAT_ID": 40701, "ELEMENT_SET_NO": 999, "REV_AT_EPOCH": 58336, "BSTAR": 0.00044501012, "MEAN_MOTION_DOT": 0.00016982, "MEAN_MOTION_DDOT": 0}, "tle": {"line1": "1 40701U 15030A   25350.99705916  .00016982  00000+0  44501-3 0  9994", "line2": "2 40701  97.6897 169.3446 0011806 123.5263 236.7111 15.38694024583369"}}, "geometry": {"type": "Point", "coordinates": [-12.307013709557694, -14.21204623343138]}}, {"type": "Feature", "properties": {"norad_id": 40718, "name": "CARBONITE 1 (CBNT-1)", "group": "resource", "lat": -67.50782132096923, "lon": -168.94894602643691, "alt_km": 633.7288578792359, "timestamp": "2025-12-17T07:00:46.548830+00:00", "meta": {"OBJECT_NAME": "CARBONITE 1 (CBNT-1)", "OBJECT_ID": "2015-032D", "EPOCH": "2025-12-16T23:13:31.892736", "MEAN_MOTION": 14.82764561, "ECCENTRICITY": 0.00146255, "INCLINATION": 97.6399, "RA_OF_ASC_NODE": 171.8251, "ARG_OF_PERICENTER": 167.3838, "MEAN_ANOMALY": 192.7745, "EPHEMERIS_TYPE": 0, "CLASSIFICATION_TYPE": "U", "NORAD_CAT_ID": 40718, "ELEMENT_SET_NO": 999, "REV_AT_EPOCH": 56233, "BSTAR": 0.0001912209, "MEAN_MOTION_DOT": 1.497e-05, "MEAN_MOTION_DDOT": 0}, "tle": {"line1": "1 40718U 15032D   25350.96773024  .00001497  00000+0  19122-3 0  9992", "line2": "2 40718  97.6399 171.8251 0014625 167.3838 192.7745 14.82764561562332"}}, "geometry": {"type": "Point", "coordinates": [-168.94894602643691, -67.50782132096923]}}, {"type": "Feature", "properties": {"norad_id": 40878, "name": "YAOGAN-27", "group": "resource", "lat": 37.43288992415824, "lon": 168.54809689209984, "alt_km": 1200.880029879916, "timestamp": "2025-12-17T07:00:46.548840+00:00", "meta": {"OBJECT_NAME": "YAOGAN-27", "OBJECT_ID": "2015-040A", "EPOCH": "2025-12-16T22:59:45.912192", "MEAN_MOTION": 13.1606098, "ECCENTRICITY": 0.00075853, "INCLINATION": 100.1007, "RA_OF_ASC_NODE": 340.3874, "ARG_OF_PERICENTER": 276.2894, "MEAN_ANOMALY": 83.7356, "EPHEMERIS_TYPE": 0, "CLASSIFICATION_TYPE": "U", "NORAD_CAT_ID": 40878, "ELEMENT_SET_NO": 999, "REV_AT_EPOCH": 49369, "BSTAR": 0.00082156315, "MEAN_MOTION_DOT": 2.7e-06, "MEAN_MOTION_DDOT": 0}, "tle": {"line1": "1 40878U 15040A   25350.95817028  .00000270  00000+0  82156-3 0  9995", "line2": "2 40878 100.1007 340.3874 0007585 276.2894  83.7356 13.16060980493697"}}, "geometry": {"type": "Point", "coordinates": [168.54809689209984, 37.43288992415824]}}, {"type": "Feature", "properties": {"norad_id": 40894, "name": "GAOFEN-9 01", "group": "resource", "lat": -26.388061257927568, "lon": -153.77451438981694, "alt_km": 646.8969419070572, "timestamp": "2025-12-17T07:00:46.548850+00:00", "meta": {"OBJECT_NAME": "GAOFEN-9 01", "OBJECT_ID": "2015-047A", "EPOCH": "2025-12-16T23:36:16.673184", "MEAN_MOTION": 14.82432836, "ECCENTRICITY": 0.00280604, "INCLINATION": 97.6538, "RA_OF_ASC_NODE": 29.7557, "ARG_OF_PERICENTER": 20.7295, "MEAN_ANOMALY": 339.5051, "EPHEMERIS_TYPE": 0, "CLASSIFICATION_TYPE": "U", "NORAD_CAT_ID": 40894, "ELEMENT_SET_NO": 999, "REV_AT_EPOCH": 55319, "BSTAR": 0.00013198719, "MEAN_MOTION_DOT": 1.014e-05, "MEAN_MOTION_DDOT": 0}, "tle": {"line1": "1 40894U 15047A   25350.98352631  .00001014  00000+0  13199-3 0  9995", "line2": "2 40894  97.6538  29.7557 0028060  20.7295 339.5051 14.82432836553191"}}, "geometry": {"type": "Point", "coordinates": [-153.77451438981694, -26.388061257927568]}}, {"type": "Feature", "properties": {"norad_id": 41026, "name": "YAOGAN-28", "group": "resource", "lat": -35.26450238770716, "lon": 134.1423263358154, "alt_km": 506.0591250291882, "timestamp": "2025-12-17T07:00:46.548861+00:00", "meta": {"OBJECT_NAME": "YAOGAN-28", "OBJECT_ID": "2015-064A", "EPOCH": "2025-12-16T23:17:31.651872", "MEAN_MOTION": 15.24424295, "ECCENTRICITY": 0.00125269, "INCLINATION": 97.2803, "RA_OF_ASC_NODE": 128.6432, "ARG_OF_PERICENTER": 112.4829, "MEAN_ANOMALY": 247.7737, "EPHEMERIS_TYPE": 0, "CLASSIFICATION_TYPE": "U", "NORAD_CAT_ID": 41026, "ELEMENT_SET_NO": 999, "REV_AT_EPOCH": 56289, "BSTAR": 0.00025941054, "MEAN_MOTION_DOT": 6.307e-05, "MEAN_MOTION_DDOT": 0}, "tle": {"line1": "1 41026U 15064A   25350.97050523  .00006307  00000+0  25941-3 0  9994", "line2": "2 41026  97.2803 128.6432 0012526 112.4829 247.7737 15.24424295562898"}}, "geometry": {"type": "Point", "coordinates": [134.1423263358154, -35.26450238770716]}}, {"type": "Feature", "properties": {"norad_id": 41038, "name": "YAOGAN-29", "group": "resource", "lat": 75.57046724036876, "lon": -132.28429404540114, "alt_km": 613.0876655205111, "timestamp": "2025-12-17T07:00:46.548871+00:00", "meta": {"OBJECT_NAME": "YAOGAN-29", "OBJECT_ID": "2015-069A", "EPOCH": "2025-12-17T00:04:36.397056", "MEAN_MOTION": 14.82885953, "ECCENTRICITY": 2.322e-05, "INCLINATION": 98.0221, "RA_OF_ASC_NODE": 14.189, "ARG_OF_PERICENTER": 203.1546, "MEAN_ANOMALY": 156.9657, "EPHEMERIS_TYPE": 0, "CLASSIFICATION_TYPE": "U", "NORAD_CAT_ID": 41038, "ELEMENT_SET_NO": 999, "REV_AT_EPOCH": 54362, "BSTAR": -2.731956e-06, "MEAN_MOTION_DOT": -7.6e-07, "MEAN_MOTION_DDOT": 0}, "tle": {"line1": "1 41038U 15069A   25351.00319904 -.00000076  00000+0 -27320-5 0  9992", "line2": "2 41038  98.0221  14.1890 0000232 203.1546 156.9657 14.82885953543623"}}, "geometry": {"type": "Point", "coordinates": [-132.28429404540114, 75.57046724036876]}}, {"type": "Feature", "properties": {"norad_id": 41167, "name": "KENT RIDGE 1", "group": "resource", "lat": -5.322660927939162, "lon": 156.97674901151984, "alt_km": 503.4047867040954, "timestamp": "2025-12-17T07:00:46.548881+00:00", "meta": {"OBJECT_NAME": "KENT RIDGE 1", "OBJECT_ID": "2015-077B", "EPOCH": "2025-12-16T04:21:40.220064", "MEAN_MOTION": 15.21665252, "ECCENTRICITY": 0.00084925, "INCLINATION": 14.9782, "RA_OF_ASC_NODE": 185.6007, "ARG_OF_PERICENTER": 179.6251, "MEAN_ANOMALY": 180.4078, "EPHEMERIS_TYPE": 0, "CLASSIFICATION_TYPE": "U", "NORAD_CAT_ID": 41167, "ELEMENT_SET_NO": 999, "REV_AT_EPOCH": 55316, "BSTAR": 0.00013603568, "MEAN_MOTION_DOT": 3.923e-05, "MEAN_MOTION_DDOT": 0}, "tle": {"line1": "1 41167U 15077B   25350.18171551  .00003923  00000+0  13604-3 0  9996", "line2": "2 41167  14.9782 185.6007 0008492 179.6251 180.4078 15.21665252553166"}}, "geometry": {"type": "Point", "coordinates": [156.97674901151984, -5.322660927939162]}}, {"type": "Feature", "properties": {"norad_id": 41194, "name": "GAOFEN-4", "group": "resource", "lat": -0.12271965911486137, "lon": -62.92230320178957, "alt_km": 35791.452961234354, "timestamp": "2025-12-17T07:00:46.548895+00:00", "meta": {"OBJECT_NAME": "GAOFEN-4", "OBJECT_ID": "2015-083A", "EPOCH": "2025-12-16T16:30:21.701088", "MEAN_MOTION": 1.0027459, "ECCENTRICITY": 0.00029122, "INCLINATION": 0.1803, "RA_OF_ASC_NODE": 81.6263, "ARG_OF_PERICENTER": 95.6325, "MEAN_ANOMALY": 261.5967, "EPHEMERIS_TYPE": 0, "CLASSIFICATION_TYPE": "U", "NORAD_CAT_ID": 41194, "ELEMENT_SET_NO": 999, "REV_AT_EPOCH": 3669, "BSTAR": 0, "MEAN_MOTION_DOT": -3.11e-06, "MEAN_MOTION_DDOT": 0}, "tle": {"line1": "1 41194U 15083A   25350.68775117 -.00000311  00000+0  00000+0 0  9997", "line2": "2 41194   0.1803  81.6263 0002912  95.6325 261.5967  1.00274590 36691"}}, "geometry": {"type": "Point", "coordinates": [-62.92230320178957, -0.12271965911486137]}}, {"type": "Feature", "properties": {"norad_id": 41240, "name": "JASON-3", "group": "resource", "lat": 7.156280108198314, "lon": -34.94725724167618, "alt_km": 1312.739447753078, "timestamp": "2025-12-17T07:00:46.548906+00:00", "meta": {"OBJECT_NAME": "JASON-3", "OBJECT_ID": "2016-002A", "EPOCH": "2025-12-16T22:39:55.260576", "MEAN_MOTION": 12.8762674, "ECCENTRICITY": 0.00071735, "INCLINATION": 66.0395, "RA_OF_ASC_NODE": 148.9842, "ARG_OF_PERICENTER": 271.0461, "MEAN_ANOMALY": 88.9736, "EPHEMERIS_TYPE": 0, "CLASSIFICATION_TYPE": "U", "NORAD_CAT_ID": 41240, "ELEMENT_SET_NO": 999, "REV_AT_EPOCH": 46378, "BSTAR": 6.407978e-05, "MEAN_MOTION_DOT": -4.6e-07, "MEAN_MOTION_DDOT": 0}, "tle": {"line1": "1 41240U 16002A   25350.94438959 -.00000046  00000+0  64080-4 0  9998", "line2": "2 41240  66.0395 148.9842 0007173 271.0461  88.9736 12.87626740463789"}}, "geometry": {"type": "Point", "coordinates": [-34.94725724167618, 7.156280108198314]}}, {"type": "Feature", "properties": {"norad_id": 41335, "name": "SENTINEL-3A", "group": "resource", "lat": -37.182559099066104, "lon": 62.85693181352346, "alt_km": 809.4210647836235, "timestamp": "2025-12-17T07:00:46.548917+00:00", "meta": {"OBJECT_NAME": "SENTINEL-3A", "OBJECT_ID": "2016-011A", "EPOCH": "2025-12-16T22:46:24.952224", "MEAN_MOTION": 14.26732318, "ECCENTRICITY": 9.244e-05, "INCLINATION": 98.6311, "RA_OF_ASC_NODE": 55.9023, "ARG_OF_PERICENTER": 92.3007, "MEAN_ANOMALY": 267.8279, "EPHEMERIS_TYPE": 0, "CLASSIFICATION_TYPE": "U", "NORAD_CAT_ID": 41335, "ELEMENT_SET_NO": 999, "REV_AT_EPOCH": 51207, "BSTAR": 6.5462072e-05, "MEAN_MOTION_DOT": 1.15e-06, "MEAN_MOTION_DDOT": 0}, "tle": {"line1": "1 41335U 16011A   25350.94889991  .00000115  00000+0  65462-4 0  9990", "line2": "2 41335  98.6311  55.9023 0000924  92.3007 267.8279 14.26732318512079"}}, "geometry": {"type": "Point", "coordinates": [62.85693181352346, -37.182559099066104]}}]}